GONETS-M 17             
1 46486U 20068A   26154.92727631  .00000038  00000+0  19854-3 0  9999
2 46486  82.4988 355.7536 0023435  65.1186 295.2327 12.42872757257512
GONETS-M 18             
1 46487U 20068B   26154.89093405  .00000031  00000+0  14945-3 0  9990
2 46487  82.4941 354.8991 0020702  61.8052 298.5115 12.42872626257499
GONETS-M 19             
1 46488U 20068C   26154.94703986  .00000048  00000+0  27783-3 0  9991
2 46488  82.4966 355.3122 0014490  76.2451 284.0240 12.42891914257602
DEKART                  
1 46493U 20068H   26154.92740508  .00013264  00000+0  36802-3 0  9992
2 46493  97.8741 163.2513 0008001 343.6690  16.4294 15.37030192313739
NORBI                   
1 46494U 20068J   26154.90705387  .00025077  00000+0  48294-3 0  9990
2 46494  97.8630 169.7073 0004827 315.1495  44.9363 15.47867049314158
SALSAT                  
1 46495U 20068K   26154.53943321  .00008826  00000+0  31028-3 0  9992
2 46495  97.8849 156.7757 0009424   1.6764 358.4505 15.29589697313273
ICEYE-X6                
1 46497U 20068M   26154.88950728  .00002692  00000+0  19725-3 0  9996
2 46497  98.0969 147.9275 0008610 126.3208 233.8812 15.04445697311237
NETSAT-4                
1 46504U 20068U   26154.57661827  .00018989  00000+0  42675-3 0  9996
2 46504  97.8606 161.7287 0005699  30.7472 329.4107 15.43386179313674
NETSAT-3                
1 46505U 20068V   26154.57235990  .00019667  00000+0  45992-3 0  9994
2 46505  97.8653 159.9578 0006067  46.7511 313.4240 15.42183437313582
NETSAT-1                
1 46506U 20068W   26154.50646046  .00014469  00000+0  43777-3 0  9990
2 46506  97.8746 154.3780 0006456  68.9909 291.2022 15.34296018313200
NETSAT-2                
1 46507U 20068X   26154.57013299  .00024586  00000+0  51556-3 0  9991
2 46507  97.8621 161.5679 0005193  62.6477 297.5299 15.45384645313636
TIANQI-6                
1 46810U 20076D   26154.62446986  .00004161  00000+0  27311-3 0  9995
2 46810  34.9978 131.6964 0009424  46.3228 313.8262 15.07086378306532
KSM1-C                  
1 46906U 20081B   26154.94843507  .00010158  00000+0  38320-3 0  9997
2 46906  36.8928 140.6606 0000681 158.0341 202.0438 15.26510135307146
KSM1-D                  
1 46907U 20081C   26154.93270480  .00009196  00000+0  36857-3 0  9994
2 46907  36.8945 149.5106 0003278 170.7244 189.3566 15.24528032307071
KSM1-A                  
1 46912U 20081H   26154.94490782  .00010004  00000+0  38623-3 0  9993
2 46912  36.8938 142.9765 0004223 224.2454 135.7958 15.25741263307159
R2                      
1 46913U 20081J   26152.08134849  .00008820  00000+0  34667-3 0  9993
2 46913  36.8961 160.5241 0006826 158.1099 201.9942 15.25182244309522
KSM1-B                  
1 46914U 20081K   26154.67233302  .00006873  00000+0  27826-3 0  9990
2 46914  36.9001 151.6859 0005440 182.5359 177.5363 15.24312383310127
GONETS-M 20             
1 47227U 20091A   26154.88506030  .00000007  00000+0 -21055-4 0  9996
2 47227  82.5036 310.7061 0020573 207.1114 152.8893 12.42893091249425
GONETS-M 21             
1 47228U 20091B   26154.93935884 -.00002502  00000+0 -18138-1 0  9994
2 47228  82.4954 309.3883 0013327 221.1682 138.8393 12.42884319249427
GONETS-M 22             
1 47229U 20091C   26154.91250788  .00000019  00000+0  65344-4 0  9999
2 47229  82.5019 310.2966 0021519 202.3658 157.6485 12.42892097249377
CUBEL                   
1 47448U 21006AM  26154.91503497  .00009151  00000+0  22533-3 0  9995
2 47448  97.2338 205.6277 0005849 206.0472 154.0481 15.40795651297719
ARKTIKA-M 1             
1 47719U 21016A   26153.03917935 -.00000200  00000+0  00000+0 0  9993
2 47719  63.2379  59.8266 7283239 269.8643  14.6915  2.00628509 38489
STARLINK-2342           
1 47883U 21021Z   26154.91668981  .01180998  00000+0  89199-2 0  9995
2 47883  53.1541 214.2727 0001567  84.6599 166.3530 15.69352414  5937
GRUS-1B                 
1 47934U 21022C   26154.95948707  .00002505  00000+0  21115-3 0  9995
2 47934  97.5401  38.5904 0016697  13.8295 346.3383 14.98957906283912
UNISAT-7                
1 47945U 21022P   26154.64665462  .00015159  00000+0  37993-3 0  9997
2 47945  97.3902  59.4332 0011075 117.9803 242.2565 15.40084513287778
GLOBAL-9                
1 47971U 21023G   26152.94292187  .00024132  00000+0  49012-3 0  9994
2 47971  44.9825 336.1718 0004720 242.3433 117.6978 15.45952325292581
AII-BRAVO               
1 48270U 21034C   26154.11098173  .00004945  00000+0  36838-3 0  9991
2 48270  97.5600 209.3420 0005036 320.0663  40.0192 15.03352815277504
