OBJECT_NAME,OBJECT_ID,EPOCH,MEAN_MOTION,ECCENTRICITY,INCLINATION,RA_OF_ASC_NODE,ARG_OF_PERICENTER,MEAN_ANOMALY,EPHEMERIS_TYPE,CLASSIFICATION_TYPE,NORAD_CAT_ID,ELEMENT_SET_NO,REV_AT_EPOCH,BSTAR,MEAN_MOTION_DOT,MEAN_MOTION_DDOT
GONETS-M 17,2020-068A,2026-06-03T22:15:16.673184,12.42872757,.00234353,82.4988,355.7536,65.1186,295.2327,0,U,46486,999,25751,.19853769E-3,.38E-6,0
GONETS-M 18,2020-068B,2026-06-03T21:22:56.701920,12.42872626,.00207024,82.4941,354.8991,61.8052,298.5115,0,U,46487,999,25749,.14944787E-3,.31E-6,0
GONETS-M 19,2020-068C,2026-06-03T22:43:44.243904,12.42891914,.00144901,82.4966,355.3122,76.2451,284.0240,0,U,46488,999,25760,.27783451E-3,.48E-6,0
DEKART,2020-068H,2026-06-03T22:15:27.798912,15.37030192,.00080015,97.8741,163.2513,343.6690,16.4294,0,U,46493,999,31373,.36801941E-3,.13264E-3,0
NORBI,2020-068J,2026-06-03T21:46:09.454368,15.47867049,.00048279,97.8630,169.7073,315.1495,44.9363,0,U,46494,999,31415,.48293833E-3,.25077E-3,0
SALSAT,2020-068K,2026-06-03T12:56:47.029344,15.29589697,.00094244,97.8849,156.7757,1.6764,358.4505,0,U,46495,999,31327,.31027905E-3,.8826E-4,0
ICEYE-X6,2020-068M,2026-06-03T21:20:53.428992,15.04445697,.00086105,98.0969,147.9275,126.3208,233.8812,0,U,46497,999,31123,.19725134E-3,.2692E-4,0
NETSAT-4,2020-068U,2026-06-03T13:50:19.818528,15.43386179,.00056992,97.8606,161.7287,30.7472,329.4107,0,U,46504,999,31367,.42675312E-3,.18989E-3,0
NETSAT-3,2020-068V,2026-06-03T13:44:11.895360,15.42183437,.00060677,97.8653,159.9578,46.7511,313.4240,0,U,46505,999,31358,.45992462E-3,.19667E-3,0
NETSAT-1,2020-068W,2026-06-03T12:09:18.183744,15.34296018,.00064563,97.8746,154.3780,68.9909,291.2022,0,U,46506,999,31320,.43777397E-3,.14469E-3,0
NETSAT-2,2020-068X,2026-06-03T13:40:59.490336,15.45384645,.00051933,97.8621,161.5679,62.6477,297.5299,0,U,46507,999,31363,.51556175E-3,.24586E-3,0
TIANQI-6,2020-076D,2026-06-03T14:59:14.195904,15.07086378,.00094241,34.9978,131.6964,46.3228,313.8262,0,U,46810,999,30653,.27311214E-3,.4161E-4,0
KSM1-C,2020-081B,2026-06-03T22:45:44.790048,15.26510135,.00006819,36.8928,140.6606,158.0341,202.0438,0,U,46906,999,30714,.38319843E-3,.10158E-3,0
KSM1-D,2020-081C,2026-06-03T22:23:05.694720,15.24528032,.00032783,36.8945,149.5106,170.7244,189.3566,0,U,46907,999,30707,.36856787E-3,.9196E-4,0
KSM1-A,2020-081H,2026-06-03T22:40:40.035648,15.25741263,.00042233,36.8938,142.9765,224.2454,135.7958,0,U,46912,999,30715,.38623353E-3,.10004E-3,0
R2,2020-081J,2026-06-01T01:57:08.509536,15.25182244,.00068263,36.8961,160.5241,158.1099,201.9942,0,U,46913,999,30952,.346666E-3,.882E-4,0
KSM1-B,2020-081K,2026-06-03T16:08:09.572928,15.24312383,.00054402,36.9001,151.6859,182.5359,177.5363,0,U,46914,999,31012,.27826496E-3,.6873E-4,0
GONETS-M 20,2020-091A,2026-06-03T21:14:29.209920,12.42893091,.00205739,82.5036,310.7061,207.1114,152.8893,0,U,47227,999,24942,-.21055354E-4,.7E-7,0
GONETS-M 21,2020-091B,2026-06-03T22:32:40.603776,12.42884319,.00133278,82.4954,309.3883,221.1682,138.8393,0,U,47228,999,24942,-.18138418E-1,-.2502E-4,0
GONETS-M 22,2020-091C,2026-06-03T21:54:00.680832,12.42892097,.0021519,82.5019,310.2966,202.3658,157.6485,0,U,47229,999,24937,.65344202E-4,.19E-6,0
CUBEL,2021-006AM,2026-06-03T21:57:39.021408,15.40795651,.00058497,97.2338,205.6277,206.0472,154.0481,0,U,47448,999,29771,.22533242E-3,.9151E-4,0
ARKTIKA-M 1,2021-016A,2026-06-02T00:56:25.095840,2.00628509,.72832396,63.2379,59.8266,269.8643,14.6915,0,U,47719,999,3848,0,-.2E-5,0
STARLINK-2342,2021-021Z,2026-06-03T22:00:01.999584,15.69352414,.00015677,53.1541,214.2727,84.6599,166.3530,0,U,47883,999,593,.89198606E-2,.1180998E-1,0
GRUS-1B,2021-022C,2026-06-03T23:01:39.682848,14.98957906,.00166974,97.5401,38.5904,13.8295,346.3383,0,U,47934,999,28391,.21114818E-3,.2505E-4,0
UNISAT-7,2021-022P,2026-06-03T15:31:10.959168,15.40084513,.00110754,97.3902,59.4332,117.9803,242.2565,0,U,47945,999,28777,.3799331E-3,.15159E-3,0
GLOBAL-9,2021-023G,2026-06-01T22:37:48.449568,15.45952325,.000472,44.9825,336.1718,242.3433,117.6978,0,U,47971,999,29258,.49011502E-3,.24132E-3,0
AII-BRAVO,2021-034C,2026-06-03T02:39:48.821472,15.03352815,.00050364,97.5600,209.3420,320.0663,40.0192,0,U,48270,999,27750,.36837887E-3,.4945E-4,0
